<?xml version="1.0"?>
<gpx xmlns="http://www.topografix.com/GPX/1/1" xmlns:xsi="http://www.w3.org/2001/XMLSchema-instance" xmlns:wptx1="http://www.garmin.com/xmlschemas/WaypointExtension/v1" xmlns:gpxtrx="http://www.garmin.com/xmlschemas/GpxExtensions/v3" xmlns:gpxtpx="http://www.garmin.com/xmlschemas/TrackPointExtension/v1" xmlns:gpxx="http://www.garmin.com/xmlschemas/GpxExtensions/v3" xmlns:trp="http://www.garmin.com/xmlschemas/TripExtensions/v1" xmlns:adv="http://www.garmin.com/xmlschemas/AdventuresExtensions/v1" xmlns:prs="http://www.garmin.com/xmlschemas/PressureExtension/v1" xmlns:tmd="http://www.garmin.com/xmlschemas/TripMetaDataExtensions/v1" xmlns:vptm="http://www.garmin.com/xmlschemas/ViaPointTransportationModeExtensions/v1" xmlns:ctx="http://www.garmin.com/xmlschemas/CreationTimeExtension/v1" xmlns:gpxacc="http://www.garmin.com/xmlschemas/AccelerationExtension/v1" xmlns:gpxpx="http://www.garmin.com/xmlschemas/PowerExtension/v1" xmlns:vidx1="http://www.garmin.com/xmlschemas/VideoExtension/v1" creator="Garmin Desktop App" version="1.1" xsi:schemaLocation="http://www.topografix.com/GPX/1/1 http://www.topografix.com/GPX/1/1/gpx.xsd http://www.garmin.com/xmlschemas/WaypointExtension/v1 http://www8.garmin.com/xmlschemas/WaypointExtensionv1.xsd http://www.garmin.com/xmlschemas/TrackPointExtension/v1 http://www.garmin.com/xmlschemas/TrackPointExtensionv1.xsd http://www.garmin.com/xmlschemas/GpxExtensions/v3 http://www8.garmin.com/xmlschemas/GpxExtensionsv3.xsd http://www.garmin.com/xmlschemas/ActivityExtension/v1 http://www8.garmin.com/xmlschemas/ActivityExtensionv1.xsd http://www.garmin.com/xmlschemas/AdventuresExtensions/v1 http://www8.garmin.com/xmlschemas/AdventuresExtensionv1.xsd http://www.garmin.com/xmlschemas/PressureExtension/v1 http://www.garmin.com/xmlschemas/PressureExtensionv1.xsd http://www.garmin.com/xmlschemas/TripExtensions/v1 http://www.garmin.com/xmlschemas/TripExtensionsv1.xsd http://www.garmin.com/xmlschemas/TripMetaDataExtensions/v1 http://www.garmin.com/xmlschemas/TripMetaDataExtensionsv1.xsd http://www.garmin.com/xmlschemas/ViaPointTransportationModeExtensions/v1 http://www.garmin.com/xmlschemas/ViaPointTransportationModeExtensionsv1.xsd http://www.garmin.com/xmlschemas/CreationTimeExtension/v1 http://www.garmin.com/xmlschemas/CreationTimeExtensionsv1.xsd http://www.garmin.com/xmlschemas/AccelerationExtension/v1 http://www.garmin.com/xmlschemas/AccelerationExtensionv1.xsd http://www.garmin.com/xmlschemas/PowerExtension/v1 http://www.garmin.com/xmlschemas/PowerExtensionv1.xsd http://www.garmin.com/xmlschemas/VideoExtension/v1 http://www.garmin.com/xmlschemas/VideoExtensionv1.xsd">
  <metadata>
    <link href="http://www.garmin.com">
      <text>Garmin International</text>
    </link>
    <time>2020-05-28T23:48:10Z</time>
    <bounds maxlat="31.457370528951287" maxlon="-109.926389688625932" minlat="31.453869072720408" minlon="-109.929562825709581"/>
  </metadata>
  <wpt lat="31.453869072720408" lon="-109.929562825709581">
    <ele>1659.331200000000081</ele>
    <time>2019-12-04T02:37:18Z</time>
    <name>Locklin #1</name>
    <cmt>03-DEC-19 8:37:39AM</cmt>
    <desc>03-DEC-19 8:37:39AM</desc>
    <sym>City (Small)</sym>
    <type>user</type>
    <extensions>
      <gpxx:WaypointExtension>
        <gpxx:DisplayMode>SymbolOnly</gpxx:DisplayMode>
      </gpxx:WaypointExtension>
      <wptx1:WaypointExtension>
        <wptx1:DisplayMode>SymbolOnly</wptx1:DisplayMode>
      </wptx1:WaypointExtension>
      <ctx:CreationTimeExtension>
        <ctx:CreationTime>2019-12-04T02:37:18Z</ctx:CreationTime>
      </ctx:CreationTimeExtension>
    </extensions>
  </wpt>
  <wpt lat="31.454996354877949" lon="-109.929058654233813">
    <ele>1742.846400000000131</ele>
    <time>2019-12-04T02:37:18Z</time>
    <name>Locklin #10</name>
    <cmt>03-DEC-19 9:05:55AM</cmt>
    <desc>03-DEC-19 9:05:55AM</desc>
    <sym>City (Small)</sym>
    <type>user</type>
    <extensions>
      <gpxx:WaypointExtension>
        <gpxx:DisplayMode>SymbolOnly</gpxx:DisplayMode>
      </gpxx:WaypointExtension>
      <wptx1:WaypointExtension>
        <wptx1:DisplayMode>SymbolOnly</wptx1:DisplayMode>
      </wptx1:WaypointExtension>
      <ctx:CreationTimeExtension>
        <ctx:CreationTime>2019-12-04T02:37:18Z</ctx:CreationTime>
      </ctx:CreationTimeExtension>
    </extensions>
  </wpt>
  <wpt lat="31.455140439793468" lon="-109.929100563749671">
    <ele>1746.504000000000133</ele>
    <time>2019-12-04T02:37:18Z</time>
    <name>Locklin #11</name>
    <cmt>03-DEC-19 9:09:48AM</cmt>
    <desc>03-DEC-19 9:09:48AM</desc>
    <sym>City (Small)</sym>
    <type>user</type>
    <extensions>
      <gpxx:WaypointExtension>
        <gpxx:DisplayMode>SymbolOnly</gpxx:DisplayMode>
      </gpxx:WaypointExtension>
      <wptx1:WaypointExtension>
        <wptx1:DisplayMode>SymbolOnly</wptx1:DisplayMode>
      </wptx1:WaypointExtension>
      <ctx:CreationTimeExtension>
        <ctx:CreationTime>2019-12-04T02:37:18Z</ctx:CreationTime>
      </ctx:CreationTimeExtension>
    </extensions>
  </wpt>
  <wpt lat="31.4552700240165" lon="-109.929124535992742">
    <ele>1749.856800000000021</ele>
    <time>2019-12-04T02:37:18Z</time>
    <name>Locklin #12</name>
    <cmt>03-DEC-19 9:10:34AM</cmt>
    <desc>03-DEC-19 9:10:34AM</desc>
    <sym>City (Small)</sym>
    <type>user</type>
    <extensions>
      <gpxx:WaypointExtension>
        <gpxx:DisplayMode>SymbolOnly</gpxx:DisplayMode>
      </gpxx:WaypointExtension>
      <wptx1:WaypointExtension>
        <wptx1:DisplayMode>SymbolOnly</wptx1:DisplayMode>
      </wptx1:WaypointExtension>
      <ctx:CreationTimeExtension>
        <ctx:CreationTime>2019-12-04T02:37:18Z</ctx:CreationTime>
      </ctx:CreationTimeExtension>
    </extensions>
  </wpt>
  <wpt lat="31.455522570759058" lon="-109.929149765521288">
    <ele>1755.952800000000025</ele>
    <time>2019-12-04T02:37:18Z</time>
    <name>Locklin #13</name>
    <cmt>03-DEC-19 9:11:41AM</cmt>
    <desc>03-DEC-19 9:11:41AM</desc>
    <sym>City (Small)</sym>
    <type>user</type>
    <extensions>
      <gpxx:WaypointExtension>
        <gpxx:DisplayMode>SymbolOnly</gpxx:DisplayMode>
      </gpxx:WaypointExtension>
      <wptx1:WaypointExtension>
        <wptx1:DisplayMode>SymbolOnly</wptx1:DisplayMode>
      </wptx1:WaypointExtension>
      <ctx:CreationTimeExtension>
        <ctx:CreationTime>2019-12-04T02:37:18Z</ctx:CreationTime>
      </ctx:CreationTimeExtension>
    </extensions>
  </wpt>
  <wpt lat="31.455601779744029" lon="-109.929071143269539">
    <ele>1759.915200000000141</ele>
    <time>2019-12-04T02:37:18Z</time>
    <name>Locklin #14</name>
    <cmt>03-DEC-19 9:12:42AM</cmt>
    <desc>03-DEC-19 9:12:42AM</desc>
    <sym>City (Small)</sym>
    <type>user</type>
    <extensions>
      <gpxx:WaypointExtension>
        <gpxx:DisplayMode>SymbolOnly</gpxx:DisplayMode>
      </gpxx:WaypointExtension>
      <wptx1:WaypointExtension>
        <wptx1:DisplayMode>SymbolOnly</wptx1:DisplayMode>
      </wptx1:WaypointExtension>
      <ctx:CreationTimeExtension>
        <ctx:CreationTime>2019-12-04T02:37:18Z</ctx:CreationTime>
      </ctx:CreationTimeExtension>
    </extensions>
  </wpt>
  <wpt lat="31.455673025920987" lon="-109.929051781073213">
    <ele>1762.353600000000142</ele>
    <time>2019-12-04T02:37:18Z</time>
    <name>Locklin #15</name>
    <cmt>03-DEC-19 9:13:16AM</cmt>
    <desc>03-DEC-19 9:13:16AM</desc>
    <sym>City (Small)</sym>
    <type>user</type>
    <extensions>
      <gpxx:WaypointExtension>
        <gpxx:DisplayMode>SymbolOnly</gpxx:DisplayMode>
      </gpxx:WaypointExtension>
      <wptx1:WaypointExtension>
        <wptx1:DisplayMode>SymbolOnly</wptx1:DisplayMode>
      </wptx1:WaypointExtension>
      <ctx:CreationTimeExtension>
        <ctx:CreationTime>2019-12-04T02:37:18Z</ctx:CreationTime>
      </ctx:CreationTimeExtension>
    </extensions>
  </wpt>
  <wpt lat="31.455772100016475" lon="-109.929004590958357">
    <ele>1766.316000000000031</ele>
    <time>2019-12-04T02:37:18Z</time>
    <name>Locklin #16</name>
    <cmt>03-DEC-19 9:14:03AM</cmt>
    <desc>03-DEC-19 9:14:03AM</desc>
    <sym>City (Small)</sym>
    <type>user</type>
    <extensions>
      <gpxx:WaypointExtension>
        <gpxx:DisplayMode>SymbolOnly</gpxx:DisplayMode>
      </gpxx:WaypointExtension>
      <wptx1:WaypointExtension>
        <wptx1:DisplayMode>SymbolOnly</wptx1:DisplayMode>
      </wptx1:WaypointExtension>
      <ctx:CreationTimeExtension>
        <ctx:CreationTime>2019-12-04T02:37:18Z</ctx:CreationTime>
      </ctx:CreationTimeExtension>
    </extensions>
  </wpt>
  <wpt lat="31.455873101949692" lon="-109.928935607895255">
    <ele>1770.583200000000033</ele>
    <time>2019-12-04T02:37:18Z</time>
    <name>Locklin #17</name>
    <cmt>03-DEC-19 9:15:14AM</cmt>
    <desc>03-DEC-19 9:15:14AM</desc>
    <sym>City (Small)</sym>
    <type>user</type>
    <extensions>
      <gpxx:WaypointExtension>
        <gpxx:DisplayMode>SymbolOnly</gpxx:DisplayMode>
      </gpxx:WaypointExtension>
      <wptx1:WaypointExtension>
        <wptx1:DisplayMode>SymbolOnly</wptx1:DisplayMode>
      </wptx1:WaypointExtension>
      <ctx:CreationTimeExtension>
        <ctx:CreationTime>2019-12-04T02:37:18Z</ctx:CreationTime>
      </ctx:CreationTimeExtension>
    </extensions>
  </wpt>
  <wpt lat="31.45596438087523" lon="-109.928987827152014">
    <ele>1773.631200000000035</ele>
    <time>2019-12-04T02:37:18Z</time>
    <name>Locklin #18</name>
    <cmt>03-DEC-19 9:17:27AM</cmt>
    <desc>03-DEC-19 9:17:27AM</desc>
    <sym>City (Small)</sym>
    <type>user</type>
    <extensions>
      <gpxx:WaypointExtension>
        <gpxx:DisplayMode>SymbolOnly</gpxx:DisplayMode>
      </gpxx:WaypointExtension>
      <wptx1:WaypointExtension>
        <wptx1:DisplayMode>SymbolOnly</wptx1:DisplayMode>
      </wptx1:WaypointExtension>
      <ctx:CreationTimeExtension>
        <ctx:CreationTime>2019-12-04T02:37:18Z</ctx:CreationTime>
      </ctx:CreationTimeExtension>
    </extensions>
  </wpt>
  <wpt lat="31.456055156886578" lon="-109.928882215172052">
    <ele>1777.593600000000151</ele>
    <time>2019-12-04T02:37:18Z</time>
    <name>Locklin #19</name>
    <cmt>03-DEC-19 9:19:33AM</cmt>
    <desc>03-DEC-19 9:19:33AM</desc>
    <sym>City (Small)</sym>
    <type>user</type>
    <extensions>
      <gpxx:WaypointExtension>
        <gpxx:DisplayMode>SymbolOnly</gpxx:DisplayMode>
      </gpxx:WaypointExtension>
      <wptx1:WaypointExtension>
        <wptx1:DisplayMode>SymbolOnly</wptx1:DisplayMode>
      </wptx1:WaypointExtension>
      <ctx:CreationTimeExtension>
        <ctx:CreationTime>2019-12-04T02:37:18Z</ctx:CreationTime>
      </ctx:CreationTimeExtension>
    </extensions>
  </wpt>
  <wpt lat="31.453910479322076" lon="-109.929521838203073">
    <ele>1726.082400000000007</ele>
    <time>2019-12-04T02:37:18Z</time>
    <name>Locklin #2</name>
    <cmt>03-DEC-19 8:58:30AM</cmt>
    <desc>03-DEC-19 8:58:30AM</desc>
    <sym>City (Small)</sym>
    <type>user</type>
    <extensions>
      <gpxx:WaypointExtension>
        <gpxx:DisplayMode>SymbolOnly</gpxx:DisplayMode>
      </gpxx:WaypointExtension>
      <wptx1:WaypointExtension>
        <wptx1:DisplayMode>SymbolOnly</wptx1:DisplayMode>
      </wptx1:WaypointExtension>
      <ctx:CreationTimeExtension>
        <ctx:CreationTime>2019-12-04T02:37:18Z</ctx:CreationTime>
      </ctx:CreationTimeExtension>
    </extensions>
  </wpt>
  <wpt lat="31.455630529671907" lon="-109.928994365036488">
    <ele>1762.658400000000029</ele>
    <time>2019-12-04T02:37:18Z</time>
    <name>Locklin #20</name>
    <cmt>03-DEC-19 9:24:49AM</cmt>
    <desc>03-DEC-19 9:24:49AM</desc>
    <sym>City (Small)</sym>
    <type>user</type>
    <extensions>
      <gpxx:WaypointExtension>
        <gpxx:DisplayMode>SymbolOnly</gpxx:DisplayMode>
      </gpxx:WaypointExtension>
      <wptx1:WaypointExtension>
        <wptx1:DisplayMode>SymbolOnly</wptx1:DisplayMode>
      </wptx1:WaypointExtension>
      <ctx:CreationTimeExtension>
        <ctx:CreationTime>2019-12-04T02:37:18Z</ctx:CreationTime>
      </ctx:CreationTimeExtension>
    </extensions>
  </wpt>
  <wpt lat="31.454737270250916" lon="-109.928689850494266">
    <ele>1736.140800000000127</ele>
    <time>2019-12-04T02:37:18Z</time>
    <name>Locklin #21</name>
    <cmt>03-DEC-19 9:30:13AM</cmt>
    <desc>03-DEC-19 9:30:13AM</desc>
    <sym>City (Small)</sym>
    <type>user</type>
    <extensions>
      <gpxx:WaypointExtension>
        <gpxx:DisplayMode>SymbolOnly</gpxx:DisplayMode>
      </gpxx:WaypointExtension>
      <wptx1:WaypointExtension>
        <wptx1:DisplayMode>SymbolOnly</wptx1:DisplayMode>
      </wptx1:WaypointExtension>
      <ctx:CreationTimeExtension>
        <ctx:CreationTime>2019-12-04T02:37:18Z</ctx:CreationTime>
      </ctx:CreationTimeExtension>
    </extensions>
  </wpt>
  <wpt lat="31.454861657693982" lon="-109.928372763097286">
    <ele>1740.712800000000016</ele>
    <time>2019-12-04T02:37:18Z</time>
    <name>Locklin #22</name>
    <cmt>03-DEC-19 9:31:42AM</cmt>
    <desc>03-DEC-19 9:31:42AM</desc>
    <sym>City (Small)</sym>
    <type>user</type>
    <extensions>
      <gpxx:WaypointExtension>
        <gpxx:DisplayMode>SymbolOnly</gpxx:DisplayMode>
      </gpxx:WaypointExtension>
      <wptx1:WaypointExtension>
        <wptx1:DisplayMode>SymbolOnly</wptx1:DisplayMode>
      </wptx1:WaypointExtension>
      <ctx:CreationTimeExtension>
        <ctx:CreationTime>2019-12-04T02:37:18Z</ctx:CreationTime>
      </ctx:CreationTimeExtension>
    </extensions>
  </wpt>
  <wpt lat="31.455084532499313" lon="-109.927921649068594">
    <ele>1745.284800000000132</ele>
    <time>2019-12-04T02:37:18Z</time>
    <name>Locklin #23</name>
    <cmt>03-DEC-19 9:44:42AM</cmt>
    <desc>03-DEC-19 9:44:42AM</desc>
    <sym>City (Small)</sym>
    <type>user</type>
    <extensions>
      <gpxx:WaypointExtension>
        <gpxx:DisplayMode>SymbolOnly</gpxx:DisplayMode>
      </gpxx:WaypointExtension>
      <wptx1:WaypointExtension>
        <wptx1:DisplayMode>SymbolOnly</wptx1:DisplayMode>
      </wptx1:WaypointExtension>
      <ctx:CreationTimeExtension>
        <ctx:CreationTime>2019-12-04T02:37:18Z</ctx:CreationTime>
      </ctx:CreationTimeExtension>
    </extensions>
  </wpt>
  <wpt lat="31.455364990979433" lon="-109.927699780091643">
    <ele>1750.161600000000135</ele>
    <time>2019-12-04T02:37:18Z</time>
    <name>Locklin #24</name>
    <cmt>03-DEC-19 9:47:27AM</cmt>
    <desc>03-DEC-19 9:47:27AM</desc>
    <sym>City (Small)</sym>
    <type>user</type>
    <extensions>
      <gpxx:WaypointExtension>
        <gpxx:DisplayMode>SymbolOnly</gpxx:DisplayMode>
      </gpxx:WaypointExtension>
      <wptx1:WaypointExtension>
        <wptx1:DisplayMode>SymbolOnly</wptx1:DisplayMode>
      </wptx1:WaypointExtension>
      <ctx:CreationTimeExtension>
        <ctx:CreationTime>2019-12-04T02:37:18Z</ctx:CreationTime>
      </ctx:CreationTimeExtension>
    </extensions>
  </wpt>
  <wpt lat="31.455451240763068" lon="-109.927627947181463">
    <ele>1752.600000000000136</ele>
    <time>2019-12-04T02:37:18Z</time>
    <name>Locklin #25</name>
    <cmt>03-DEC-19 9:49:00AM</cmt>
    <desc>03-DEC-19 9:49:00AM</desc>
    <sym>City (Small)</sym>
    <type>user</type>
    <extensions>
      <gpxx:WaypointExtension>
        <gpxx:DisplayMode>SymbolOnly</gpxx:DisplayMode>
      </gpxx:WaypointExtension>
      <wptx1:WaypointExtension>
        <wptx1:DisplayMode>SymbolOnly</wptx1:DisplayMode>
      </wptx1:WaypointExtension>
      <ctx:CreationTimeExtension>
        <ctx:CreationTime>2019-12-04T02:37:18Z</ctx:CreationTime>
      </ctx:CreationTimeExtension>
    </extensions>
  </wpt>
  <wpt lat="31.455725580453873" lon="-109.927449245005846">
    <ele>1754.733600000000024</ele>
    <time>2019-12-04T02:37:18Z</time>
    <name>Locklin #26</name>
    <cmt>03-DEC-19 9:49:51AM</cmt>
    <desc>03-DEC-19 9:49:51AM</desc>
    <sym>City (Small)</sym>
    <type>user</type>
    <extensions>
      <gpxx:WaypointExtension>
        <gpxx:DisplayMode>SymbolOnly</gpxx:DisplayMode>
      </gpxx:WaypointExtension>
      <wptx1:WaypointExtension>
        <wptx1:DisplayMode>SymbolOnly</wptx1:DisplayMode>
      </wptx1:WaypointExtension>
      <ctx:CreationTimeExtension>
        <ctx:CreationTime>2019-12-04T02:37:18Z</ctx:CreationTime>
      </ctx:CreationTimeExtension>
    </extensions>
  </wpt>
  <wpt lat="31.45582172088325" lon="-109.927449161186814">
    <ele>1757.172000000000025</ele>
    <time>2019-12-04T02:37:18Z</time>
    <name>Locklin #27</name>
    <cmt>03-DEC-19 9:50:48AM</cmt>
    <desc>03-DEC-19 9:50:48AM</desc>
    <sym>City (Small)</sym>
    <type>user</type>
    <extensions>
      <gpxx:WaypointExtension>
        <gpxx:DisplayMode>SymbolOnly</gpxx:DisplayMode>
      </gpxx:WaypointExtension>
      <wptx1:WaypointExtension>
        <wptx1:DisplayMode>SymbolOnly</wptx1:DisplayMode>
      </wptx1:WaypointExtension>
      <ctx:CreationTimeExtension>
        <ctx:CreationTime>2019-12-04T02:37:18Z</ctx:CreationTime>
      </ctx:CreationTimeExtension>
    </extensions>
  </wpt>
  <wpt lat="31.455934708938003" lon="-109.927415801212192">
    <ele>1759.915200000000141</ele>
    <time>2019-12-04T02:37:18Z</time>
    <name>Locklin #28</name>
    <cmt>03-DEC-19 9:52:31AMLocklin #</cmt>
    <desc>03-DEC-19 9:52:31AMLocklin #</desc>
    <sym>City (Small)</sym>
    <type>user</type>
    <extensions>
      <gpxx:WaypointExtension>
        <gpxx:DisplayMode>SymbolOnly</gpxx:DisplayMode>
      </gpxx:WaypointExtension>
      <wptx1:WaypointExtension>
        <wptx1:DisplayMode>SymbolOnly</wptx1:DisplayMode>
      </wptx1:WaypointExtension>
      <ctx:CreationTimeExtension>
        <ctx:CreationTime>2019-12-04T02:37:18Z</ctx:CreationTime>
      </ctx:CreationTimeExtension>
    </extensions>
  </wpt>
  <wpt lat="31.456112656742334" lon="-109.927299460396171">
    <ele>1765.401600000000144</ele>
    <time>2019-12-04T02:37:18Z</time>
    <name>Locklin #29</name>
    <cmt>03-DEC-19 9:56:31AM</cmt>
    <desc>03-DEC-19 9:56:31AM</desc>
    <sym>City (Small)</sym>
    <type>user</type>
    <extensions>
      <gpxx:WaypointExtension>
        <gpxx:DisplayMode>SymbolOnly</gpxx:DisplayMode>
      </gpxx:WaypointExtension>
      <wptx1:WaypointExtension>
        <wptx1:DisplayMode>SymbolOnly</wptx1:DisplayMode>
      </wptx1:WaypointExtension>
      <ctx:CreationTimeExtension>
        <ctx:CreationTime>2019-12-04T02:37:18Z</ctx:CreationTime>
      </ctx:CreationTimeExtension>
    </extensions>
  </wpt>
  <wpt lat="31.454204181209207" lon="-109.92942008189857">
    <ele>1730.044800000000123</ele>
    <time>2019-12-04T02:37:18Z</time>
    <name>Locklin #3</name>
    <cmt>03-DEC-19 9:00:35AM</cmt>
    <desc>03-DEC-19 9:00:35AM</desc>
    <sym>City (Small)</sym>
    <type>user</type>
    <extensions>
      <gpxx:WaypointExtension>
        <gpxx:DisplayMode>SymbolOnly</gpxx:DisplayMode>
      </gpxx:WaypointExtension>
      <wptx1:WaypointExtension>
        <wptx1:DisplayMode>SymbolOnly</wptx1:DisplayMode>
      </wptx1:WaypointExtension>
      <ctx:CreationTimeExtension>
        <ctx:CreationTime>2019-12-04T02:37:18Z</ctx:CreationTime>
      </ctx:CreationTimeExtension>
    </extensions>
  </wpt>
  <wpt lat="31.456198403611779" lon="-109.927247744053602">
    <ele>1766.011200000000144</ele>
    <time>2019-12-04T02:37:18Z</time>
    <name>Locklin #30</name>
    <cmt>03-DEC-19 9:57:32AM</cmt>
    <desc>03-DEC-19 9:57:32AM</desc>
    <sym>City (Small)</sym>
    <type>user</type>
    <extensions>
      <gpxx:WaypointExtension>
        <gpxx:DisplayMode>SymbolOnly</gpxx:DisplayMode>
      </gpxx:WaypointExtension>
      <wptx1:WaypointExtension>
        <wptx1:DisplayMode>SymbolOnly</wptx1:DisplayMode>
      </wptx1:WaypointExtension>
      <ctx:CreationTimeExtension>
        <ctx:CreationTime>2019-12-04T02:37:18Z</ctx:CreationTime>
      </ctx:CreationTimeExtension>
    </extensions>
  </wpt>
  <wpt lat="31.45634307526052" lon="-109.927054708823562">
    <ele>1769.973600000000033</ele>
    <time>2019-12-04T02:37:18Z</time>
    <name>Locklin #31</name>
    <cmt>03-DEC-19 9:59:52AM</cmt>
    <desc>03-DEC-19 9:59:52AM</desc>
    <sym>City (Small)</sym>
    <type>user</type>
    <extensions>
      <gpxx:WaypointExtension>
        <gpxx:DisplayMode>SymbolOnly</gpxx:DisplayMode>
      </gpxx:WaypointExtension>
      <wptx1:WaypointExtension>
        <wptx1:DisplayMode>SymbolOnly</wptx1:DisplayMode>
      </wptx1:WaypointExtension>
      <ctx:CreationTimeExtension>
        <ctx:CreationTime>2019-12-04T02:37:18Z</ctx:CreationTime>
      </ctx:CreationTimeExtension>
    </extensions>
  </wpt>
  <wpt lat="31.456531165167689" lon="-109.926814064383507">
    <ele>1776.374400000000151</ele>
    <time>2019-12-04T02:37:18Z</time>
    <name>Locklin #32</name>
    <cmt>03-DEC-19 10:01:52AM</cmt>
    <desc>03-DEC-19 10:01:52AM</desc>
    <sym>City (Small)</sym>
    <type>user</type>
    <extensions>
      <gpxx:WaypointExtension>
        <gpxx:DisplayMode>SymbolOnly</gpxx:DisplayMode>
      </gpxx:WaypointExtension>
      <wptx1:WaypointExtension>
        <wptx1:DisplayMode>SymbolOnly</wptx1:DisplayMode>
      </wptx1:WaypointExtension>
      <ctx:CreationTimeExtension>
        <ctx:CreationTime>2019-12-04T02:37:18Z</ctx:CreationTime>
      </ctx:CreationTimeExtension>
    </extensions>
  </wpt>
  <wpt lat="31.456541391089559" lon="-109.926630081608891">
    <ele>1779.422400000000152</ele>
    <time>2019-12-04T02:37:18Z</time>
    <name>Locklin #33</name>
    <cmt>03-DEC-19 10:02:53AM</cmt>
    <desc>03-DEC-19 10:02:53AM</desc>
    <sym>City (Small)</sym>
    <type>user</type>
    <extensions>
      <gpxx:WaypointExtension>
        <gpxx:DisplayMode>SymbolOnly</gpxx:DisplayMode>
      </gpxx:WaypointExtension>
      <wptx1:WaypointExtension>
        <wptx1:DisplayMode>SymbolOnly</wptx1:DisplayMode>
      </wptx1:WaypointExtension>
      <ctx:CreationTimeExtension>
        <ctx:CreationTime>2019-12-04T02:37:18Z</ctx:CreationTime>
      </ctx:CreationTimeExtension>
    </extensions>
  </wpt>
  <wpt lat="31.456672735512257" lon="-109.926529414951801">
    <ele>1783.689600000000155</ele>
    <time>2019-12-04T02:37:18Z</time>
    <name>Locklin #34</name>
    <cmt>03-DEC-19 10:04:25AM</cmt>
    <desc>03-DEC-19 10:04:25AM</desc>
    <sym>City (Small)</sym>
    <type>user</type>
    <extensions>
      <gpxx:WaypointExtension>
        <gpxx:DisplayMode>SymbolOnly</gpxx:DisplayMode>
      </gpxx:WaypointExtension>
      <wptx1:WaypointExtension>
        <wptx1:DisplayMode>SymbolOnly</wptx1:DisplayMode>
      </wptx1:WaypointExtension>
      <ctx:CreationTimeExtension>
        <ctx:CreationTime>2019-12-04T02:37:18Z</ctx:CreationTime>
      </ctx:CreationTimeExtension>
    </extensions>
  </wpt>
  <wpt lat="31.456797206774354" lon="-109.926457330584526">
    <ele>1787.347200000000157</ele>
    <time>2019-12-04T02:37:18Z</time>
    <name>Locklin #35</name>
    <cmt>03-DEC-19 10:05:04AM</cmt>
    <desc>03-DEC-19 10:05:04AM</desc>
    <sym>City (Small)</sym>
    <type>user</type>
    <extensions>
      <gpxx:WaypointExtension>
        <gpxx:DisplayMode>SymbolOnly</gpxx:DisplayMode>
      </gpxx:WaypointExtension>
      <wptx1:WaypointExtension>
        <wptx1:DisplayMode>SymbolOnly</wptx1:DisplayMode>
      </wptx1:WaypointExtension>
      <ctx:CreationTimeExtension>
        <ctx:CreationTime>2019-12-04T02:37:18Z</ctx:CreationTime>
      </ctx:CreationTimeExtension>
    </extensions>
  </wpt>
  <wpt lat="31.456891000270844" lon="-109.926389688625932">
    <ele>1790.700000000000045</ele>
    <time>2019-12-04T02:37:18Z</time>
    <name>Locklin #36</name>
    <cmt>03-DEC-19 10:06:31AM</cmt>
    <desc>03-DEC-19 10:06:31AM</desc>
    <sym>City (Small)</sym>
    <type>user</type>
    <extensions>
      <gpxx:WaypointExtension>
        <gpxx:DisplayMode>SymbolOnly</gpxx:DisplayMode>
      </gpxx:WaypointExtension>
      <wptx1:WaypointExtension>
        <wptx1:DisplayMode>SymbolOnly</wptx1:DisplayMode>
      </wptx1:WaypointExtension>
      <ctx:CreationTimeExtension>
        <ctx:CreationTime>2019-12-04T02:37:18Z</ctx:CreationTime>
      </ctx:CreationTimeExtension>
    </extensions>
  </wpt>
  <wpt lat="31.457012286409736" lon="-109.926415169611573">
    <ele>1794.357600000000048</ele>
    <time>2019-12-04T02:37:18Z</time>
    <name>Locklin #37</name>
    <cmt>03-DEC-19 10:07:49AM</cmt>
    <desc>03-DEC-19 10:07:49AM</desc>
    <sym>City (Small)</sym>
    <type>user</type>
    <extensions>
      <gpxx:WaypointExtension>
        <gpxx:DisplayMode>SymbolOnly</gpxx:DisplayMode>
      </gpxx:WaypointExtension>
      <wptx1:WaypointExtension>
        <wptx1:DisplayMode>SymbolOnly</wptx1:DisplayMode>
      </wptx1:WaypointExtension>
      <ctx:CreationTimeExtension>
        <ctx:CreationTime>2019-12-04T02:37:18Z</ctx:CreationTime>
      </ctx:CreationTimeExtension>
    </extensions>
  </wpt>
  <wpt lat="31.457228036597371" lon="-109.926399495452642">
    <ele>1803.806400000000167</ele>
    <time>2019-12-04T02:37:18Z</time>
    <name>Locklin #38</name>
    <cmt>03-DEC-19 10:09:29AM</cmt>
    <desc>03-DEC-19 10:09:29AM</desc>
    <sym>City (Small)</sym>
    <type>user</type>
    <extensions>
      <gpxx:WaypointExtension>
        <gpxx:DisplayMode>SymbolOnly</gpxx:DisplayMode>
      </gpxx:WaypointExtension>
      <wptx1:WaypointExtension>
        <wptx1:DisplayMode>SymbolOnly</wptx1:DisplayMode>
      </wptx1:WaypointExtension>
      <ctx:CreationTimeExtension>
        <ctx:CreationTime>2019-12-04T02:37:18Z</ctx:CreationTime>
      </ctx:CreationTimeExtension>
    </extensions>
  </wpt>
  <wpt lat="31.457370528951287" lon="-109.926467472687364">
    <ele>1807.159200000000055</ele>
    <time>2019-12-04T02:37:18Z</time>
    <name>Locklin #39</name>
    <cmt>03-DEC-19 10:11:28AM</cmt>
    <desc>03-DEC-19 10:11:28AM</desc>
    <sym>City (Small)</sym>
    <type>user</type>
    <extensions>
      <gpxx:WaypointExtension>
        <gpxx:DisplayMode>SymbolOnly</gpxx:DisplayMode>
      </gpxx:WaypointExtension>
      <wptx1:WaypointExtension>
        <wptx1:DisplayMode>SymbolOnly</wptx1:DisplayMode>
      </wptx1:WaypointExtension>
      <ctx:CreationTimeExtension>
        <ctx:CreationTime>2019-12-04T02:37:18Z</ctx:CreationTime>
      </ctx:CreationTimeExtension>
    </extensions>
  </wpt>
  <wpt lat="31.454527135938406" lon="-109.92935067974031">
    <ele>1731.264000000000124</ele>
    <time>2019-12-04T02:37:18Z</time>
    <name>Locklin #4</name>
    <cmt>03-DEC-19 9:02:02AM</cmt>
    <desc>03-DEC-19 9:02:02AM</desc>
    <sym>City (Small)</sym>
    <type>user</type>
    <extensions>
      <gpxx:WaypointExtension>
        <gpxx:DisplayMode>SymbolOnly</gpxx:DisplayMode>
      </gpxx:WaypointExtension>
      <wptx1:WaypointExtension>
        <wptx1:DisplayMode>SymbolOnly</wptx1:DisplayMode>
      </wptx1:WaypointExtension>
      <ctx:CreationTimeExtension>
        <ctx:CreationTime>2019-12-04T02:37:18Z</ctx:CreationTime>
      </ctx:CreationTimeExtension>
    </extensions>
  </wpt>
  <wpt lat="31.454556975513697" lon="-109.929156890138984">
    <ele>1731.56880000000001</ele>
    <time>2019-12-04T02:37:18Z</time>
    <name>Locklin #5</name>
    <cmt>03-DEC-19 9:02:36AM</cmt>
    <desc>03-DEC-19 9:02:36AM</desc>
    <sym>City (Small)</sym>
    <type>user</type>
    <extensions>
      <gpxx:WaypointExtension>
        <gpxx:DisplayMode>SymbolOnly</gpxx:DisplayMode>
      </gpxx:WaypointExtension>
      <wptx1:WaypointExtension>
        <wptx1:DisplayMode>SymbolOnly</wptx1:DisplayMode>
      </wptx1:WaypointExtension>
      <ctx:CreationTimeExtension>
        <ctx:CreationTime>2019-12-04T02:37:18Z</ctx:CreationTime>
      </ctx:CreationTimeExtension>
    </extensions>
  </wpt>
  <wpt lat="31.454669628292322" lon="-109.928889842703938">
    <ele>1734.616800000000012</ele>
    <time>2019-12-04T02:37:18Z</time>
    <name>Locklin #6</name>
    <cmt>03-DEC-19 9:03:35AM</cmt>
    <desc>03-DEC-19 9:03:35AM</desc>
    <sym>City (Small)</sym>
    <type>user</type>
    <extensions>
      <gpxx:WaypointExtension>
        <gpxx:DisplayMode>SymbolOnly</gpxx:DisplayMode>
      </gpxx:WaypointExtension>
      <wptx1:WaypointExtension>
        <wptx1:DisplayMode>SymbolOnly</wptx1:DisplayMode>
      </wptx1:WaypointExtension>
      <ctx:CreationTimeExtension>
        <ctx:CreationTime>2019-12-04T02:37:18Z</ctx:CreationTime>
      </ctx:CreationTimeExtension>
    </extensions>
  </wpt>
  <wpt lat="31.454712375998497" lon="-109.928882047533989">
    <ele>1736.140800000000127</ele>
    <time>2019-12-04T02:37:18Z</time>
    <name>Locklin #7</name>
    <cmt>03-DEC-19 9:04:00AM</cmt>
    <desc>03-DEC-19 9:04:00AM</desc>
    <sym>City (Small)</sym>
    <type>user</type>
    <extensions>
      <gpxx:WaypointExtension>
        <gpxx:DisplayMode>SymbolOnly</gpxx:DisplayMode>
      </gpxx:WaypointExtension>
      <wptx1:WaypointExtension>
        <wptx1:DisplayMode>SymbolOnly</wptx1:DisplayMode>
      </wptx1:WaypointExtension>
      <ctx:CreationTimeExtension>
        <ctx:CreationTime>2019-12-04T02:37:18Z</ctx:CreationTime>
      </ctx:CreationTimeExtension>
    </extensions>
  </wpt>
  <wpt lat="31.454746406525373" lon="-109.928873330354691">
    <ele>1736.445600000000013</ele>
    <time>2019-12-04T02:37:18Z</time>
    <name>Locklin #8</name>
    <cmt>03-DEC-19 9:04:23AM</cmt>
    <desc>03-DEC-19 9:04:23AM</desc>
    <sym>City (Small)</sym>
    <type>user</type>
    <extensions>
      <gpxx:WaypointExtension>
        <gpxx:DisplayMode>SymbolOnly</gpxx:DisplayMode>
      </gpxx:WaypointExtension>
      <wptx1:WaypointExtension>
        <wptx1:DisplayMode>SymbolOnly</wptx1:DisplayMode>
      </wptx1:WaypointExtension>
      <ctx:CreationTimeExtension>
        <ctx:CreationTime>2019-12-04T02:37:18Z</ctx:CreationTime>
      </ctx:CreationTimeExtension>
    </extensions>
  </wpt>
  <wpt lat="31.454855035990477" lon="-109.928933763876557">
    <ele>1738.579200000000128</ele>
    <time>2019-12-04T02:37:18Z</time>
    <name>Locklin #9</name>
    <cmt>03-DEC-19 9:04:54AM</cmt>
    <desc>03-DEC-19 9:04:54AM</desc>
    <sym>City (Small)</sym>
    <type>user</type>
    <extensions>
      <gpxx:WaypointExtension>
        <gpxx:DisplayMode>SymbolOnly</gpxx:DisplayMode>
      </gpxx:WaypointExtension>
      <wptx1:WaypointExtension>
        <wptx1:DisplayMode>SymbolOnly</wptx1:DisplayMode>
      </wptx1:WaypointExtension>
      <ctx:CreationTimeExtension>
        <ctx:CreationTime>2019-12-04T02:37:18Z</ctx:CreationTime>
      </ctx:CreationTimeExtension>
    </extensions>
  </wpt>
</gpx>
